FLOCK 2P-10             
1 41612U 16040P   17223.61505954  .00001931  00000-0  86562-4 0  9990
2 41612  97.4582 286.0962 0009442 245.2107 114.8148 15.22414156 63102
FLOCK 2P-8              
1 41613U 16040Q   17223.49997347  .00001011  00000-0  46799-4 0  9995
2 41613  97.4578 285.9241 0009600 244.5250 115.4993 15.22413407 63083
FLOCK 2P-12             
1 41614U 16040R   17223.46171081  .00002603  00000-0  11567-3 0  9994
2 41614  97.4584 286.0280 0009263 244.6905 115.3372 15.22395620 63085
FLOCK 2P-7              
1 41615U 16040S   17223.49451517  .00001092  00000-0  50275-4 0  9994
2 41615  97.4575 285.9170 0009484 246.0866 113.9377 15.22411697 63081
FLOCK 2P-5              
1 41616U 16040T   17223.60400832  .00001322  00000-0  60229-4 0  9998
2 41616  97.4588 286.1431 0009313 243.4924 116.5358 15.22408250 63085
FLOCK 2P-1              
1 41617U 16040U   17223.46119164  .00002530  00000-0  11248-3 0  9996
2 41617  97.4586 286.0290 0009099 244.9020 115.1272 15.22406816 63086
FLOCK 2P-3              
1 41618U 16040V   17223.48909369  .00001580  00000-0  71385-4 0  9996
2 41618  97.4588 285.9847 0009185 244.8909 115.1375 15.22412982 63081
BEESAT-4                
1 41619U 16040W   17223.13073746  .00001213  00000-0  57945-4 0  9999
2 41619  97.4580 284.9803 0010753 231.0307 128.9971 15.20905701 50947
3CAT-2                  
1 41732U 16051B   17223.50423757  .00000990  00000-0  42407-4 0  9997
2 41732  97.3748 139.6692 0015741  79.1931  26.5658 15.25007866 54967
FLOCK 2E'-13            
1 41761U 98067KH  17223.52041185  .00007154  00000-0  87447-4 0  9991
2 41761  51.6377 111.8928 0007269 107.3627 252.8162 15.61622354 51557
FLOCK 2E'-14            
1 41762U 98067KJ  17223.11518179  .00008126  00000-0  97700-4 0  9992
2 41762  51.6390 113.7156 0007163 106.3729 253.8053 15.61836718 51496
FLOCK 2E'-16            
1 41763U 98067KK  17223.51747357  .00008303  00000-0  97781-4 0  9995
2 41763  51.6389 111.1487 0006483 116.4872 243.6788 15.62350140 51526
FLOCK 2E'-15            
1 41764U 98067KL  17223.15114381  .00007250  00000-0  88918-4 0  9993
2 41764  51.6386 113.9504 0006771 111.8227 248.3488 15.61511363 51453
FLOCK 2E'-18            
1 41769U 98067KM  17223.51914432  .00007017  00000-0  86089-4 0  9991
2 41769  51.6388 111.9018 0005647 132.5226 227.6246 15.61568355 51510
FLOCK 2E'-17            
1 41776U 98067KN  17223.31735629  .00008077  00000-0  97852-4 0  9993
2 41776  51.6394 112.8266 0006018 132.8055 227.3445 15.61651487 51478
FLOCK 2E'-19            
1 41777U 98067KP  17223.21239388  .00009929  00000-0  10646-3 0  9996
2 41777  51.6371 109.8230 0004944 132.8124 227.3287 15.64519893 51464
FLOCK 2E'-20            
1 41782U 98067KQ  17223.55868581  .00010385  00000-0  11490-3 0  9998
2 41782  51.6383 109.1683 0005080 128.3049 231.8403 15.63648460 51378
CANX-7                  
1 41788U 16059F   17223.53376674  .00003231  00000-0  60801-3 0  9992
2 41788  98.1811 284.9668 0029716 358.7713   1.3394 14.65011621 46692
ALSAT 1N                
1 41789U 16059G   17223.43980964  .00000061  00000-0  20839-4 0  9991
2 41789  98.1639 284.8369 0028186 344.3229  15.7100 14.64062924 46696
RAVAN                   
1 41849U 16067B   17223.16711837  .00001242  00000-0  11299-3 0  9999
2 41849  97.9469 302.1446 0010284 114.7339 245.4954 14.97071183 40733
CELTEE 1                
1 41850U 16067C   17223.15586695  .00000378  00000-0  38518-4 0  9995
2 41850  97.9457 302.0002 0010263 113.8005 246.4292 14.96581136 40724
OPTICUBE 04             
1 41851U 16067D   17223.16408056  .00000591  00000-0  57321-4 0  9991
2 41851  97.9462 301.9891 0010455 114.2162 246.0152 14.96507131 40721
AEROCUBE 8D             
1 41852U 16067E   17223.42290528  .00000442  00000-0  44496-4 0  9998
2 41852  97.9472 302.1514 0011132 113.5438 246.6953 14.96229060 40759
AEROCUBE 8C             
1 41853U 16067F   17223.16209612  .00000640  00000-0  62153-4 0  9994
2 41853  97.9473 301.8694 0011593 115.2275 245.0149 14.96193416 40716
PROMETHEUS 2-1          
1 41854U 16067G   17223.44547403  .00000640  00000-0  62195-4 0  9995
2 41854  97.9481 302.1251 0012029 113.4622 246.7864 14.96167334 40756
PROMETHEUS 2-3          
1 41855U 16067H   17223.44716214  .00000570  00000-0  55969-4 0  9997
2 41855  97.9482 302.1265 0012174 113.7010 246.5489 14.96159737 40757
LEMUR-2-XIAOQING        
1 41871U 16062C   17223.34888179  .00002225  00000-0  10872-3 0  9991
2 41871  51.6530 184.9393 0005393  58.0437  98.8047 15.22557571 39342
LEMUR-2-SOKOLSKY        
1 41872U 16062D   17223.52203858  .00002758  00000-0  13129-3 0  9996
2 41872  51.6462 183.8834 0005511  85.3444  15.7567 15.22563501 39365
LEMUR-2-ANUBHAVTHAKUR   
1 41873U 16062E   17223.35209703  .00000166  00000-0  21751-4 0  9995
2 41873  51.6435 185.7272 0007237  82.8377  41.1932 15.21644976 39316
LEMUR-2-WINGO           
1 41874U 16062F   17223.48871594  .00000329  00000-0  28461-4 0  9999
2 41874  51.6325 184.4931 0007322  61.3544  31.8376 15.22205180 39359
STARS-C                 
1 41895U 98067KR  17223.20478003  .00021975  00000-0  23264-3 0  9990
2 41895  51.6370 115.7895 0004948 151.7819 208.3445 15.64057032 36596
TANCREDO-1              
1 41931U 98067KT  17223.28415292  .00054651  00000-0  39292-3 0  9995
2 41931  51.6347 109.5180 0006192 129.0983 231.0567 15.73040877 32258
ITF-2                   
1 41932U 98067KU  17223.56130038  .00010020  00000-0  12536-3 0  9993
2 41932  51.6402 116.7039 0006144 114.8985 245.2647 15.60476002 32182
WASEDA-SAT3             
1 41933U 98067KV  17223.57913485  .00012296  00000-0  14814-3 0  9998
2 41933  51.6383 116.0510 0006111 117.9813 242.1799 15.61218533 32195
AOBA-VELOX 3            
1 41935U 98067KX  17223.34621204  .00010621  00000-0  13031-3 0  9990
2 41935  51.6398 117.5118 0005626 117.3736 242.7830 15.60919326 32257
TUPOD                   
1 41936U 98067KY  17223.56475943  .00155030  00000-0  65272-3 0  9990
2 41936  51.6284 103.0684 0004481 166.6844 193.4278 15.84487563 31846
OSNSAT                  
1 41939U 98067KZ  17223.11587390  .00027601  00000-0  26445-3 0  9995
2 41939  51.6370 114.4353 0006826 120.3846 239.7825 15.66418495 31523
FLOCK 3P-8              
1 41951U 17008D   17223.57512732  .00001528  00000-0  68638-4 0  9994
2 41951  97.4915 284.7290 0008429  10.9676 349.1743 15.22686143 26963
FLOCK 3P-51             
1 41952U 17008E   17223.61191289  .00001220  00000-0  55323-4 0  9996
2 41952  97.4921 284.8471 0008932  28.3597 331.8124 15.22748951 26975
FLOCK 3P-37             
1 41953U 17008F   17223.57519629  .00002112  00000-0  92403-4 0  9995
2 41953  97.4920 284.8889 0008375  33.4663 326.7102 15.23157229 26972
INS-1B                  
1 41954U 17008G   17223.56886960  .00001168  00000-0  54431-4 0  9999
2 41954  97.4893 284.5361 0009693   8.6415 351.4985 15.21870663 26894
FLOCK 3P-19             
1 41955U 17008H   17223.45887993  .00002800  00000-0  12328-3 0  9997
2 41955  97.4906 284.5688 0009247  10.5913 349.5517 15.22657361 26867
FLOCK 3P-24             
1 41956U 17008J   17223.25986825  .00001922  00000-0  85482-4 0  9996
2 41956  97.4905 284.3748 0009058   8.6208 351.5182 15.22698593 26916
FLOCK 3P-18             
1 41957U 17008K   17223.58993315  .00003502  00000-0  15312-3 0  9995
2 41957  97.4906 284.7039 0009116   8.1223 352.0159 15.22718249 26801
FLOCK 3P-22             
1 41958U 17008L   17223.59385579  .00002771  00000-0  12219-3 0  9994
2 41958  97.4907 284.6994 0009005   9.0001 351.1395 15.22611254 26791
FLOCK 3P-21             
1 41959U 17008M   17223.51727206  .00002814  00000-0  12383-3 0  9994
2 41959  97.4912 284.6573 0008883  11.8359 348.3084 15.22669731 26797
FLOCK 3P-28             
1 41960U 17008N   17223.58106257  .00002702  00000-0  11899-3 0  9997
2 41960  97.4910 284.7218 0008684  10.1826 349.9584 15.22676009 26882
FLOCK 3P-26             
1 41961U 17008P   17223.58974451  .00002780  00000-0  12251-3 0  9996
2 41961  97.4909 284.7087 0008838   9.1798 350.9598 15.22636401 26803
FLOCK 3P-17             
1 41962U 17008Q   17223.57078917  .00002216  00000-0  98044-4 0  9997
2 41962  97.4915 284.7344 0008777  11.7553 348.3886 15.22712203 26757
FLOCK 3P-27             
1 41963U 17008R   17223.59655611  .00002837  00000-0  12520-3 0  9995
2 41963  97.4910 284.7020 0008965   9.2318 350.9081 15.22564102 26809
FLOCK 3P-25             
1 41964U 17008S   17223.45376373  .00002863  00000-0  12594-3 0  9996
2 41964  97.4908 284.5812 0008639  11.0313 349.1111 15.22673212 26760
FLOCK 3P-4              
1 41965U 17008T   17223.57902882  .00002198  00000-0  97329-4 0  9991
2 41965  97.4916 284.7261 0008670  11.4257 348.7174 15.22699054 26885
FLOCK 3P-2              
1 41966U 17008U   17223.57942945  .00002763  00000-0  12165-3 0  9998
2 41966  97.4912 284.7293 0008445  10.1881 349.9525 15.22676001 26808
FLOCK 3P-1              
1 41967U 17008V   17223.58861565  .00002378  00000-0  10566-3 0  9993
2 41967  97.4915 284.7198 0008564  10.6514 349.4902 15.22490975 26804
FLOCK 3P-3              
1 41968U 17008W   17223.51598607  .00001932  00000-0  86008-4 0  9991
2 41968  97.4915 284.6561 0008587  10.2201 349.9208 15.22670842 26876
FLOCK 3P-6              
1 41969U 17008X   17223.57771323  .00002882  00000-0  12665-3 0  9998
2 41969  97.4913 284.7321 0008330  10.3619 349.7787 15.22702006 26799
FLOCK 3P-7              
1 41970U 17008Y   17223.56112805  .00001840  00000-0  81767-4 0  9996
2 41970  97.4918 284.7548 0008568  13.0908 347.0549 15.22780239 26804
FLOCK 3P-5              
1 41971U 17008Z   17223.57293015  .00002877  00000-0  12650-3 0  9996
2 41971  97.4915 284.7425 0008460  12.6186 347.5260 15.22681682 26739
FLOCK 3P-12             
1 41972U 17008AA  17223.57106100  .00001836  00000-0  81814-4 0  9998
2 41972  97.4919 284.7438 0008331  12.7422 347.4023 15.22693213 26884
